start=new Date('2023-07-01T00:00:00.000Z').valueOf();
sats=[{"PERIOD":"95.437","MEAN_MOTION_DDOT":"0.0000000000000","INCLINATION":"53.2167","MEAN_MOTION":"15.08843371","OBJECT_TYPE":"PAYLOAD","MEAN_ANOMALY":"273.5610","PERIAPSIS":"538.962","SITE":"AFWTR","FILE":"3946074","TLE_LINE2":"2 51794  53.2167  83.1658 0001117  86.5510 273.5610 15.08843371 75486","EPOCH":"2023-06-30T10:13:17.962176","NORAD_CAT_ID":"51794","MEAN_MOTION_DOT":"-0.00000419","ECCENTRICITY":"0.00011170","EPHEMERIS_TYPE":"0","CENTER_NAME":"EARTH","TIME_SYSTEM":"UTC","TLE_LINE1":"1 51794U 22017AC  23181.42590234 -.00000419  00000-0 -82521-5 0  9991","ARG_OF_PERICENTER":"86.5510","LAUNCH_DATE":"2022-02-25","OBJECT_NAME":"STARLINK-3573","SEMIMAJOR_AXIS":"6917.870","GP_ID":"234633271","DECAY_DATE":null,"ELEMENT_SET_NO":"999","APOAPSIS":"540.508","REF_FRAME":"TEME","MEAN_ELEMENT_THEORY":"SGP4","RA_OF_ASC_NODE":"83.1658","CLASSIFICATION_TYPE":"U","REV_AT_EPOCH":"7548","RCS_SIZE":"LARGE","OBJECT_ID":"2022-017AC","BSTAR":"-0.00000825210000","COUNTRY_CODE":"US"},{"PERIOD":"95.438","OBJECT_TYPE":"PAYLOAD","MEAN_MOTION_DDOT":"0.0000000000000","MEAN_MOTION":"15.08835396","INCLINATION":"53.2186","NORAD_CAT_ID":"51795","MEAN_MOTION_DOT":"-0.00001017","TLE_LINE2":"2 51795  53.2186  83.1531 0001236 113.4966 246.6156 15.08835396 75489","EPOCH":"2023-06-30T10:18:36.425664","TLE_LINE1":"1 51795U 22017AD  23181.42958826 -.00001017  00000-0 -45807-4 0  9997","ARG_OF_PERICENTER":"113.4966","ECCENTRICITY":"0.00012360","EPHEMERIS_TYPE":"0","TIME_SYSTEM":"UTC","CENTER_NAME":"EARTH","MEAN_ANOMALY":"246.6156","PERIAPSIS":"538.904","FILE":"3946326","SITE":"AFWTR","APOAPSIS":"540.615","REF_FRAME":"TEME","ELEMENT_SET_NO":"999","MEAN_ELEMENT_THEORY":"SGP4","OBJECT_NAME":"STARLINK-3586","LAUNCH_DATE":"2022-02-25","GP_ID":"234639839","DECAY_DATE":null,"SEMIMAJOR_AXIS":"6917.894","RCS_SIZE":"LARGE","REV_AT_EPOCH":"7548","COUNTRY_CODE":"US","OBJECT_ID":"2022-017AD","BSTAR":"-0.00004580700000","RA_OF_ASC_NODE":"83.1531","CLASSIFICATION_TYPE":"U"},{"ELEMENT_SET_NO":"999","APOAPSIS":"540.701","REF_FRAME":"TEME","MEAN_ELEMENT_THEORY":"SGP4","LAUNCH_DATE":"2022-02-25","OBJECT_NAME":"STARLINK-3630","GP_ID":"234613723","SEMIMAJOR_AXIS":"6917.873","DECAY_DATE":null,"RCS_SIZE":"LARGE","REV_AT_EPOCH":"7526","OBJECT_ID":"2022-017AE","BSTAR":"0.00001091100000","COUNTRY_CODE":"US","RA_OF_ASC_NODE":"89.4525","CLASSIFICATION_TYPE":"U","PERIOD":"95.437","MEAN_MOTION_DDOT":"0.0000000000000","MEAN_MOTION":"15.08842399","INCLINATION":"53.2165","OBJECT_TYPE":"PAYLOAD","TLE_LINE2":"2 51796  53.2165  89.4525 0001392 108.5836 251.5307 15.08842399 75263","EPOCH":"2023-06-29T00:34:18.593184","NORAD_CAT_ID":"51796","MEAN_MOTION_DOT":"-0.00000114","ECCENTRICITY":"0.00013920","EPHEMERIS_TYPE":"0","TIME_SYSTEM":"UTC","CENTER_NAME":"EARTH","TLE_LINE1":"1 51796U 22017AE  23180.02382631 -.00000114  00000-0  10911-4 0  9992","ARG_OF_PERICENTER":"108.5836","MEAN_ANOMALY":"251.5307","PERIAPSIS":"538.775","SITE":"AFWTR","FILE":"3945277"},{"CENTER_NAME":"EARTH","TIME_SYSTEM":"UTC","ECCENTRICITY":"0.00006820","EPHEMERIS_TYPE":"0","ARG_OF_PERICENTER":"275.9213","TLE_LINE1":"1 51797U 22017AF  23181.66278803  .00001942  00000-0  10066-3 0  9998","EPOCH":"2023-06-30T15:54:24.885792","TLE_LINE2":"2 51797  53.1934  70.4447 0000682 275.9213  84.1706 15.21094628 75733","MEAN_MOTION_DOT":"0.00001942","NORAD_CAT_ID":"51797","SITE":"AFWTR","FILE":"3946056","PERIAPSIS":"502.070","MEAN_ANOMALY":"84.1706","INCLINATION":"53.1934","MEAN_MOTION":"15.21094628","MEAN_MOTION_DDOT":"0.0000000000000","OBJECT_TYPE":"PAYLOAD","PERIOD":"94.669","BSTAR":"0.00010066000000","OBJECT_ID":"2022-017AF","COUNTRY_CODE":"US","RCS_SIZE":"LARGE","REV_AT_EPOCH":"7573","CLASSIFICATION_TYPE":"U","RA_OF_ASC_NODE":"70.4447","MEAN_ELEMENT_THEORY":"SGP4","ELEMENT_SET_NO":"999","REF_FRAME":"TEME","APOAPSIS":"503.009","DECAY_DATE":null,"GP_ID":"234632825","SEMIMAJOR_AXIS":"6880.675","LAUNCH_DATE":"2022-02-25","OBJECT_NAME":"STARLINK-3627"},{"FILE":"3945277","SITE":"AFWTR","MEAN_ANOMALY":"263.6284","PERIAPSIS":"539.005","TLE_LINE1":"1 51798U 22017AG  23180.02016300 -.00000916  00000-0 -39497-4 0  9992","ARG_OF_PERICENTER":"96.4841","EPHEMERIS_TYPE":"0","ECCENTRICITY":"0.00011610","TIME_SYSTEM":"UTC","CENTER_NAME":"EARTH","NORAD_CAT_ID":"51798","MEAN_MOTION_DOT":"-0.00000916","TLE_LINE2":"2 51798  53.2164  89.4727 0001161  96.4841 263.6284 15.08819441 75319","EPOCH":"2023-06-29T00:29:02.083200","OBJECT_TYPE":"PAYLOAD","MEAN_MOTION_DDOT":"0.0000000000000","INCLINATION":"53.2164","MEAN_MOTION":"15.08819441","PERIOD":"95.439","CLASSIFICATION_TYPE":"U","RA_OF_ASC_NODE":"89.4727","COUNTRY_CODE":"US","OBJECT_ID":"2022-017AG","BSTAR":"-0.00003949700000","RCS_SIZE":"LARGE","REV_AT_EPOCH":"7531","GP_ID":"234613217","DECAY_DATE":null,"SEMIMAJOR_AXIS":"6917.943","OBJECT_NAME":"STARLINK-3634","LAUNCH_DATE":"2022-02-25","MEAN_ELEMENT_THEORY":"SGP4","APOAPSIS":"540.611","REF_FRAME":"TEME","ELEMENT_SET_NO":"999"},{"MEAN_MOTION_DOT":"-0.00001134","NORAD_CAT_ID":"51799","EPOCH":"2023-06-30T10:08:00.357504","TLE_LINE2":"2 51799  53.2170  83.1776 0001114  81.7037 278.4081 15.08838716 75487","ARG_OF_PERICENTER":"81.7037","TLE_LINE1":"1 51799U 22017AH  23181.42222636 -.00001134  00000-0 -53156-4 0  9990","CENTER_NAME":"EARTH","TIME_SYSTEM":"UTC","ECCENTRICITY":"0.00011140","EPHEMERIS_TYPE":"0","PERIAPSIS":"538.979","MEAN_ANOMALY":"278.4081","FILE":"3946057","SITE":"AFWTR","PERIOD":"95.438","OBJECT_TYPE":"PAYLOAD","MEAN_MOTION":"15.08838716","INCLINATION":"53.2170","MEAN_MOTION_DDOT":"0.0000000000000","RCS_SIZE":"LARGE","REV_AT_EPOCH":"7548","COUNTRY_CODE":"US","BSTAR":"-0.00005315600000","OBJECT_ID":"2022-017AH","RA_OF_ASC_NODE":"83.1776","CLASSIFICATION_TYPE":"U","REF_FRAME":"TEME","APOAPSIS":"540.520","ELEMENT_SET_NO":"999","MEAN_ELEMENT_THEORY":"SGP4","OBJECT_NAME":"STARLINK-3637","LAUNCH_DATE":"2022-02-25","DECAY_DATE":null,"GP_ID":"234633045","SEMIMAJOR_AXIS":"6917.884"},{"FILE":"3946057","SITE":"AFWTR","PERIAPSIS":"537.912","MEAN_ANOMALY":"279.3797","ARG_OF_PERICENTER":"80.7386","TLE_LINE1":"1 51800U 22017AJ  23181.46509388  .00010785  00000-0  69061-3 0  9990","TIME_SYSTEM":"UTC","CENTER_NAME":"EARTH","ECCENTRICITY":"0.00016890","EPHEMERIS_TYPE":"0","MEAN_MOTION_DOT":"0.00010785","NORAD_CAT_ID":"51800","EPOCH":"2023-06-30T11:09:44.111232","TLE_LINE2":"2 51800  53.2172  82.9247 0001689  80.7386 279.3797 15.09057722 75536","OBJECT_TYPE":"PAYLOAD","MEAN_MOTION":"15.09057722","INCLINATION":"53.2172","MEAN_MOTION_DDOT":"0.0000000000000","PERIOD":"95.424","CLASSIFICATION_TYPE":"U","RA_OF_ASC_NODE":"82.9247","COUNTRY_CODE":"US","BSTAR":"0.00069061000000","OBJECT_ID":"2022-017AJ","RCS_SIZE":"LARGE","REV_AT_EPOCH":"7553","GP_ID":"234633052","SEMIMAJOR_AXIS":"6917.215","DECAY_DATE":null,"OBJECT_NAME":"STARLINK-3600","LAUNCH_DATE":"2022-02-25","MEAN_ELEMENT_THEORY":"SGP4","REF_FRAME":"TEME","APOAPSIS":"540.248","ELEMENT_SET_NO":"999"},{"COUNTRY_CODE":"US","BSTAR":"0.00000739710000","OBJECT_ID":"2022-017AK","RCS_SIZE":"LARGE","REV_AT_EPOCH":"7552","CLASSIFICATION_TYPE":"U","RA_OF_ASC_NODE":"82.0062","MEAN_ELEMENT_THEORY":"SGP4","REF_FRAME":"TEME","APOAPSIS":"540.622","ELEMENT_SET_NO":"999","GP_ID":"234632861","DECAY_DATE":null,"SEMIMAJOR_AXIS":"6917.913","OBJECT_NAME":"STARLINK-3592","LAUNCH_DATE":"2022-02-25","ARG_OF_PERICENTER":"89.7109","TLE_LINE1":"1 51801U 22017AK  23181.68350991 -.00000170  00000-0  73971-5 0  9994","TIME_SYSTEM":"UTC","CENTER_NAME":"EARTH","ECCENTRICITY":"0.00012200","EPHEMERIS_TYPE":"0","MEAN_MOTION_DOT":"-0.00000170","NORAD_CAT_ID":"51801","EPOCH":"2023-06-30T16:24:15.256224","TLE_LINE2":"2 51801  53.2169  82.0062 0001220  89.7109 270.4023 15.08829175 75523","FILE":"3946057","SITE":"AFWTR","PERIAPSIS":"538.934","MEAN_ANOMALY":"270.4023","OBJECT_TYPE":"PAYLOAD","INCLINATION":"53.2169","MEAN_MOTION":"15.08829175","MEAN_MOTION_DDOT":"0.0000000000000","PERIOD":"95.438"},{"CLASSIFICATION_TYPE":"U","RA_OF_ASC_NODE":"83.1040","OBJECT_ID":"2022-017AL","BSTAR":"-0.00001851100000","COUNTRY_CODE":"US","RCS_SIZE":"LARGE","REV_AT_EPOCH":"7548","GP_ID":"234633053","SEMIMAJOR_AXIS":"6917.878","DECAY_DATE":null,"LAUNCH_DATE":"2022-02-25","OBJECT_NAME":"STARLINK-3557","MEAN_ELEMENT_THEORY":"SGP4","ELEMENT_SET_NO":"999","APOAPSIS":"540.512","REF_FRAME":"TEME","SITE":"AFWTR","FILE":"3946057","MEAN_ANOMALY":"267.0681","PERIAPSIS":"538.974","EPHEMERIS_TYPE":"0","ECCENTRICITY":"0.00011120","TIME_SYSTEM":"UTC","CENTER_NAME":"EARTH","TLE_LINE1":"1 51802U 22017AL  23181.43694404 -.00000582  00000-0 -18511-4 0  9994","ARG_OF_PERICENTER":"93.0438","TLE_LINE2":"2 51802  53.2180  83.1040 0001112  93.0438 267.0681 15.08840826 75481","EPOCH":"2023-06-30T10:29:11.965056","NORAD_CAT_ID":"51802","MEAN_MOTION_DOT":"-0.00000582","MEAN_MOTION_DDOT":"0.0000000000000","MEAN_MOTION":"15.08840826","INCLINATION":"53.2180","OBJECT_TYPE":"PAYLOAD","PERIOD":"95.438"},{"LAUNCH_DATE":"2022-02-25","OBJECT_NAME":"STARLINK-3544","GP_ID":"234626564","SEMIMAJOR_AXIS":"6917.884","DECAY_DATE":null,"ELEMENT_SET_NO":"999","REF_FRAME":"TEME","APOAPSIS":"540.466","MEAN_ELEMENT_THEORY":"SGP4","RA_OF_ASC_NODE":"86.2195","CLASSIFICATION_TYPE":"U","RCS_SIZE":"LARGE","REV_AT_EPOCH":"7537","BSTAR":"0.00007576600000","OBJECT_ID":"2022-017AM","COUNTRY_CODE":"US","PERIOD":"95.438","MEAN_MOTION":"15.08838706","INCLINATION":"53.2168","MEAN_MOTION_DDOT":"0.0000000000000","OBJECT_TYPE":"PAYLOAD","PERIAPSIS":"539.033","MEAN_ANOMALY":"268.4082","SITE":"AFWTR","FILE":"3945814","EPOCH":"2023-06-29T17:52:56.799840","TLE_LINE2":"2 51803  53.2168  86.2195 0001036  91.7029 268.4082 15.08838706 75371","MEAN_MOTION_DOT":"0.00000918","NORAD_CAT_ID":"51803","CENTER_NAME":"EARTH","TIME_SYSTEM":"UTC","ECCENTRICITY":"0.00010360","EPHEMERIS_TYPE":"0","ARG_OF_PERICENTER":"91.7029","TLE_LINE1":"1 51803U 22017AM  23180.74510185  .00000918  00000-0  75766-4 0  9997"}];
